OBJECT_NAME,OBJECT_ID,EPOCH,MEAN_MOTION,ECCENTRICITY,INCLINATION,RA_OF_ASC_NODE,ARG_OF_PERICENTER,MEAN_ANOMALY,EPHEMERIS_TYPE,CLASSIFICATION_TYPE,NORAD_CAT_ID,ELEMENT_SET_NO,REV_AT_EPOCH,BSTAR,MEAN_MOTION_DOT,MEAN_MOTION_DDOT
HULIANWANG DIGUI-18,2025-030H,2026-05-21T06:18:07.041600,13.29324126,.00012869,50.0078,332.0921,78.2831,281.8185,0,U,62978,999,6228,.52514548E-4,-.1E-5,0
HULIANWANG DIGUI-19,2025-030J,2026-05-21T05:17:46.725216,13.29318589,.00011819,50.0064,332.4824,75.6612,284.4391,0,U,62979,999,6227,.33636104E-4,-.108E-5,0
STARLINK-11543 [DTC],2025-031A,2026-05-20T11:00:18.838368,15.70883358,.00020516,43.0014,288.5176,267.2559,92.8074,0,U,62981,999,7403,.58866624E-3,.75919E-3,0
STARLINK-11458 [DTC],2025-031B,2026-05-20T20:32:38.115744,15.70991714,.00021499,43.0004,286.3453,298.0546,62.0104,0,U,62982,999,7409,.11040327E-2,.14463E-2,0
STARLINK-11417 [DTC],2025-031C,2026-05-20T16:51:27.498240,15.70911946,.00007153,42.9992,287.7913,251.6297,108.4493,0,U,62983,999,7406,.96143229E-3,.125167E-2,0
STARLINK-11544 [DTC],2025-031D,2026-05-20T18:53:25.426176,15.70813964,.00015784,42.9992,286.6842,244.4652,115.6053,0,U,62984,999,7405,.10636357E-2,.13817E-2,0
STARLINK-11582 [DTC],2025-031E,2026-05-20T16:13:14.196864,15.70956222,.00013026,43.0001,287.5832,284.3133,75.7590,0,U,62985,999,7406,.99389465E-3,.129722E-2,0
STARLINK-11571 [DTC],2025-031F,2026-05-21T02:08:17.027808,15.70864230,.00026072,42.9959,284.6397,292.1859,67.8732,0,U,62986,999,7413,.11680467E-2,.152372E-2,0
STARLINK-11539 [DTC],2025-031G,2026-05-20T17:37:07.970592,15.70999901,.00024161,43.0002,287.1534,295.5036,64.5581,0,U,62987,999,7407,.1122864E-2,.147204E-2,0
STARLINK-11542 [DTC],2025-031H,2026-05-20T18:45:46.769184,15.70815426,.00011983,42.9978,286.6394,238.7020,121.3731,0,U,62988,999,7405,.12061975E-2,.157119E-2,0
STARLINK-11573 [DTC],2025-031J,2026-05-21T06:00:02.000160,15.70857847,.0001997,43.0003,284.2661,245.4697,65.3064,0,U,62989,999,598,-.67090337E-3,-.85724E-3,0
STARLINK-11572 [DTC],2025-031K,2026-05-20T18:54:46.000224,15.71113071,.00034936,42.9971,286.6879,39.7601,320.3522,0,U,62990,999,7408,.19304997E-2,.258083E-2,0
STARLINK-11583 [DTC],2025-031L,2026-05-20T18:07:44.493312,15.70838859,.00013798,42.9985,287.3202,324.6124,35.4652,0,U,62991,999,7408,.11623174E-2,.151432E-2,0
STARLINK-11570 [DTC],2025-031M,2026-05-20T19:46:56.213472,15.70848080,.0002248,43.0037,286.9835,275.3537,84.7074,0,U,62992,999,7407,.94860131E-3,.123135E-2,0
STARLINK-11576 [DTC],2025-031N,2026-05-20T19:24:00.085248,15.70818642,.00019887,43.0016,286.8518,262.2264,97.8378,0,U,62993,999,7407,.10025356E-2,.130108E-2,0
STARLINK-32899,2025-031P,2026-05-20T13:38:06.318816,15.27587222,.00008529,43.0014,97.7901,280.7740,79.3015,0,U,62994,999,7208,.21745669E-3,.5728E-4,0
STARLINK-32819,2025-031Q,2026-05-20T23:49:05.241792,15.27585505,.00009723,42.9995,94.9550,293.8648,66.2102,0,U,62995,999,7215,.57788043E-3,.15676E-3,0
STARLINK-32703,2025-031R,2026-05-20T13:30:43.218144,15.27582121,.00005672,43.0011,97.7515,331.0954,28.9866,0,U,62996,999,7208,.46043803E-3,.1243E-3,0
STARLINK-32881,2025-031S,2026-05-20T23:34:16.260096,15.27559860,.00013371,43.0045,94.8739,269.9250,90.1449,0,U,62997,999,7215,.12295574E-2,.33706E-3,0
STARLINK-32898,2025-031T,2026-05-21T03:28:51.500064,15.27587470,.00009043,42.9992,94.3770,272.0537,88.0211,0,U,62998,999,7217,.41287359E-3,.11119E-3,0
STARLINK-32658,2025-031U,2026-05-20T22:05:40.831872,15.27593030,.00003376,42.9997,95.2708,268.1040,91.9773,0,U,62999,999,7214,.36090599E-3,.9686E-4,0
STARLINK-32673,2025-031V,2026-05-20T06:50:00.984768,15.27571032,.00014722,43.0038,99.0971,265.6328,94.4355,0,U,63000,999,7204,.40289376E-3,.10838E-3,0
STARLINK-32437,2025-031W,2026-05-20T13:43:38.997696,15.27596680,.00019776,42.9996,97.8186,274.5025,85.5601,0,U,63001,999,7208,.62936265E-3,.17106E-3,0
FOSSASAT-2E20 (TAT-O),2025-009DN,2026-05-21T04:47:38.610816,15.28954704,.000435,97.3168,217.5044,82.5135,277.6599,0,U,63003,999,13238,.32738436E-3,.9138E-4,0
STARLINK-11448 [DTC],2025-032A,2026-05-20T19:55:01.125696,15.70819361,.00017498,43.0013,120.1392,243.1640,116.9048,0,U,63005,999,7357,.10138706E-2,.131611E-2,0
STARLINK-11553 [DTC],2025-032B,2026-05-20T22:43:02.458272,15.70879851,.00009038,42.9993,120.1869,272.9360,87.1405,0,U,63006,999,7357,.90480542E-3,.1175E-2,0
STARLINK-11526 [DTC],2025-032C,2026-05-21T04:56:44.275200,15.70850814,.0001707,43.0018,117.7981,255.0492,105.0187,0,U,63007,999,7362,.11105319E-2,.144619E-2,0
STARLINK-11405 [DTC],2025-032D,2026-05-20T22:29:03.630912,15.70927645,.00035826,43.0009,120.1066,284.2108,75.8362,0,U,63008,999,7342,.11702842E-2,.153105E-2,0
STARLINK-11586 [DTC],2025-032E,2026-05-21T06:00:02.000160,15.70871413,.00015568,43.0011,117.9848,263.5318,165.0353,0,U,63009,999,583,-.86290923E-3,-.109868E-2,0
