HULIANWANG DIGUI-18     
1 62978U 25030H   26141.26258150 -.00000100  00000+0  52515-4 0  9998
2 62978  50.0078 332.0921 0001286  78.2831 281.8185 13.29324126 62284
HULIANWANG DIGUI-19     
1 62979U 25030J   26141.22067969 -.00000108  00000+0  33636-4 0  9992
2 62979  50.0064 332.4824 0001181  75.6612 284.4391 13.29318589 62271
STARLINK-11543 [DTC]    
1 62981U 25031A   26140.45855137  .00075919  00000+0  58867-3 0  9995
2 62981  43.0014 288.5176 0002051 267.2559  92.8074 15.70883358 74033
STARLINK-11458 [DTC]    
1 62982U 25031B   26140.85599671  .00144630  00000+0  11040-2 0  9996
2 62982  43.0004 286.3453 0002149 298.0546  62.0104 15.70991714 74098
STARLINK-11417 [DTC]    
1 62983U 25031C   26140.70240160  .00125167  00000+0  96143-3 0  9999
2 62983  42.9992 287.7913 0000715 251.6297 108.4493 15.70911946 74066
STARLINK-11544 [DTC]    
1 62984U 25031D   26140.78709984  .00138170  00000+0  10636-2 0  9992
2 62984  42.9992 286.6842 0001578 244.4652 115.6053 15.70813964 74051
STARLINK-11582 [DTC]    
1 62985U 25031E   26140.67585876  .00129722  00000+0  99389-3 0  9999
2 62985  43.0001 287.5832 0001302 284.3133  75.7590 15.70956222 74064
STARLINK-11571 [DTC]    
1 62986U 25031F   26141.08908597  .00152372  00000+0  11680-2 0  9999
2 62986  42.9959 284.6397 0002607 292.1859  67.8732 15.70864230 74135
STARLINK-11539 [DTC]    
1 62987U 25031G   26140.73412003  .00147204  00000+0  11229-2 0  9990
2 62987  43.0002 287.1534 0002416 295.5036  64.5581 15.70999901 74073
STARLINK-11542 [DTC]    
1 62988U 25031H   26140.78179131  .00157119  00000+0  12062-2 0  9990
2 62988  42.9978 286.6394 0001198 238.7020 121.3731 15.70815426 74056
STARLINK-11573 [DTC]    
1 62989U 25031J   26141.25002315 -.00085724  00000+0 -67090-3 0  9999
2 62989  43.0003 284.2661 0001997 245.4697  65.3064 15.70857847  5986
STARLINK-11572 [DTC]    
1 62990U 25031K   26140.78803241  .00258083  00000+0  19305-2 0  9998
2 62990  42.9971 286.6879 0003493  39.7601 320.3522 15.71113071 74084
STARLINK-11583 [DTC]    
1 62991U 25031L   26140.75537608  .00151432  00000+0  11623-2 0  9992
2 62991  42.9985 287.3202 0001379 324.6124  35.4652 15.70838859 74080
STARLINK-11570 [DTC]    
1 62992U 25031M   26140.82426173  .00123135  00000+0  94860-3 0  9999
2 62992  43.0037 286.9835 0002248 275.3537  84.7074 15.70848080 74075
STARLINK-11576 [DTC]    
1 62993U 25031N   26140.80833432  .00130108  00000+0  10025-2 0  9996
2 62993  43.0016 286.8518 0001988 262.2264  97.8378 15.70818642 74075
STARLINK-32899          
1 62994U 25031P   26140.56812869  .00005728  00000+0  21746-3 0  9993
2 62994  43.0014  97.7901 0000852 280.7740  79.3015 15.27587222 72083
STARLINK-32819          
1 62995U 25031Q   26140.99242178  .00015676  00000+0  57788-3 0  9999
2 62995  42.9995  94.9550 0000972 293.8648  66.2102 15.27585505 72156
STARLINK-32703          
1 62996U 25031R   26140.56300021  .00012430  00000+0  46044-3 0  9993
2 62996  43.0011  97.7515 0000567 331.0954  28.9866 15.27582121 72080
STARLINK-32881          
1 62997U 25031S   26140.98213264  .00033706  00000+0  12296-2 0  9992
2 62997  43.0045  94.8739 0001337 269.9250  90.1449 15.27559860 72158
STARLINK-32898          
1 62998U 25031T   26141.14504051  .00011119  00000+0  41287-3 0  9996
2 62998  42.9992  94.3770 0000904 272.0537  88.0211 15.27587470 72173
STARLINK-32658          
1 62999U 25031U   26140.92061148  .00009686  00000+0  36091-3 0  9990
2 62999  42.9997  95.2708 0000337 268.1040  91.9773 15.27593030 72147
STARLINK-32673          
1 63000U 25031V   26140.28473362  .00010838  00000+0  40289-3 0  9993
2 63000  43.0038  99.0971 0001472 265.6328  94.4355 15.27571032 72046
STARLINK-32437          
1 63001U 25031W   26140.57197914  .00017106  00000+0  62936-3 0  9990
2 63001  42.9996  97.8186 0001977 274.5025  85.5601 15.27596680 72080
FOSSASAT-2E20 (TAT-O)   
1 63003U 25009DN  26141.19975244  .00009138  00000+0  32738-3 0  9999
2 63003  97.3168 217.5044 0004350  82.5135 277.6599 15.28954704132384
STARLINK-11448 [DTC]    
1 63005U 25032A   26140.82987414  .00131611  00000+0  10139-2 0  9990
2 63005  43.0013 120.1392 0001749 243.1640 116.9048 15.70819361 73578
STARLINK-11553 [DTC]    
1 63006U 25032B   26140.94655623  .00117500  00000+0  90481-3 0  9998
2 63006  42.9993 120.1869 0000903 272.9360  87.1405 15.70879851 73579
STARLINK-11526 [DTC]    
1 63007U 25032C   26141.20606800  .00144619  00000+0  11105-2 0  9998
2 63007  43.0018 117.7981 0001707 255.0492 105.0187 15.70850814 73629
STARLINK-11405 [DTC]    
1 63008U 25032D   26140.93684758  .00153105  00000+0  11703-2 0  9990
2 63008  43.0009 120.1066 0003582 284.2108  75.8362 15.70927645 73427
STARLINK-11586 [DTC]    
1 63009U 25032E   26141.25002315 -.00109868  00000+0 -86291-3 0  9994
2 63009  43.0011 117.9848 0001556 263.5318 165.0353 15.70871413  5838
